NORAD_CAT_ID,OBJECT_NAME,OBJECT_TYPE,EPOCH,MEAN_MOTION,ECCENTRICITY,INCLINATION,RA_OF_ASC_NODE,ARG_OF_PERICENTER,MEAN_ANOMALY,BSTAR,MEAN_MOTION_DOT,MEAN_MOTION_DDOT,TLE_LINE0,TLE_LINE1,TLE_LINE2,SEMIMAJOR_AXIS,PERIOD,APOGEE,PERIGEE,DECAYED
52458.0,STARLINK-3898,PAYLOAD,2023-12-02 13:22:41,15.08850742,0.0001151,53.2148,186.7525,60.2219,299.8888,2.0481e-05,3.8e-07,0.0,0 STARLINK-3898,1 52458U 22049H   23336.55742656  .00000038  00000-0  20481-4 0  9998,2 52458  53.2148 186.7525 0001151  60.2219 299.8888 15.08850742 87097,6917.848,95.437,540.509,538.916,0.0
52458.0,STARLINK-3898,PAYLOAD,2023-12-02 19:44:13,15.08855338,0.000138,53.2143,185.5632,90.5254,269.5896,0.00015523,2.184e-05,0.0,0 STARLINK-3898,1 52458U 22049H   23336.82238280  .00002184  00000-0  15523-3 0  9995,2 52458  53.2143 185.5632 0001380  90.5254 269.5896 15.08855338 87298,6917.834,95.437,540.653,538.744,0.0
52458.0,STARLINK-3898,PAYLOAD,2023-12-03 13:13:28,15.0883285,0.0001839,53.2151,182.2899,116.4806,243.6375,8.7512e-05,1.105e-05,0.0,0 STARLINK-3898,1 52458U 22049H   23337.55102808  .00001105  00000-0  87512-4 0  9992,2 52458  53.2151 182.2899 0001839 116.4806 243.6375 15.08832850 87240,6917.902,95.438,541.039,538.495,0.0
52458.0,STARLINK-3898,PAYLOAD,2023-12-03 19:35:01,15.08816035,0.0001277,53.2146,181.1019,84.7787,275.3351,-0.00020925,-3.614e-05,0.0,0 STARLINK-3898,1 52458U 22049H   23337.81599462 -.00003614  00000-0 -20925-3 0  9990,2 52458  53.2146 181.1019 0001277  84.7787 275.3351 15.08816035 87442,6917.954,95.439,540.702,538.935,0.0
52458.0,STARLINK-3898,PAYLOAD,2023-12-03 21:10:25,15.08814976,0.0001317,53.215,180.8034,95.4717,264.6426,-0.00013611,-2.452e-05,0.0,0 STARLINK-3898,1 52458U 22049H   23337.88223590 -.00002452  00000-0 -13611-3 0  9996,2 52458  53.2150 180.8034 0001317  95.4717 264.6426 15.08814976 87296,6917.957,95.439,540.733,538.911,0.0
52458.0,STARLINK-3898,PAYLOAD,2023-12-04 16:15:03,15.08819442,0.0001216,53.2143,177.2352,99.8507,260.2622,0.00016127,2.278e-05,0.0,0 STARLINK-3898,1 52458U 22049H   23338.67712835  .00002278  00000-0  16127-3 0  9998,2 52458  53.2143 177.2352 0001216  99.8507 260.2622 15.08819442 87411,6917.943,95.439,540.649,538.967,0.0
52458.0,STARLINK-3898,PAYLOAD,2023-12-04 22:36:36,15.08825799,0.0001286,53.2149,176.0454,90.3842,269.7298,0.00010264,1.345e-05,0.0,0 STARLINK-3898,1 52458U 22049H   23338.94209014  .00001345  00000-0  10264-3 0  9998,2 52458  53.2149 176.0454 0001286  90.3842 269.7298 15.08825799 87619,6917.924,95.438,540.678,538.899,0.0
52458.0,STARLINK-3898,PAYLOAD,2023-12-05 16:05:51,15.08836719,0.0001287,53.2147,172.7755,79.0082,281.1054,0.00045751,7e-05,0.0,0 STARLINK-3898,1 52458U 22049H   23339.67073490  .00007000  00000-0  45751-3 0  9999,2 52458  53.2147 172.7755 0001287  79.0082 281.1054 15.08836719 87561,6917.89,95.438,540.646,538.865,0.0
52458.0,STARLINK-3898,PAYLOAD,2023-12-07 12:36:38,15.0884995,0.0001265,53.2151,164.4474,86.1899,273.9238,0.00022185,3.246e-05,0.0,0 STARLINK-3898,1 52458U 22049H   23341.52544793  .00003246  00000-0  22185-3 0  9999,2 52458  53.2151 164.4474 0001265  86.1899 273.9238 15.08849950 88007,6917.85,95.437,540.59,538.84,0.0
52458.0,STARLINK-3898,PAYLOAD,2023-12-08 12:27:24,15.08871263,0.0001338,53.2145,159.9885,76.3741,283.74,0.00038311,5.82e-05,0.0,0 STARLINK-3898,1 52458U 22049H   23342.51902838  .00005820  00000-0  38311-3 0  9995,2 52458  53.2145 159.9885 0001338  76.3741 283.7400 15.08871263 88151,6917.785,95.436,540.575,538.724,0.0
52458.0,STARLINK-3898,PAYLOAD,2023-12-08 15:38:09,15.08870094,4.93e-05,53.2151,159.395,181.8579,178.2411,0.00036983,5.608e-05,0.0,0 STARLINK-3898,1 52458U 22049H   23342.65150366  .00005608  00000-0  36983-3 0  9998,2 52458  53.2151 159.3950 0000493 181.8579 178.2411 15.08870094 88013,6917.788,95.436,539.994,539.312,0.0
52458.0,STARLINK-3898,PAYLOAD,2023-12-09 12:18:08,15.08886102,0.0001354,53.2137,155.5264,117.3604,242.7526,-0.0021742,-0.00034767,0.0,0 STARLINK-3898,1 52458U 22049H   23343.51260251 -.00034767  00000-0 -21742-2 0  9995,2 52458  53.2137 155.5264 0001354 117.3604 242.7526 15.08886102 88148,6917.739,95.435,540.541,538.668,0.0
52458.0,STARLINK-3898,PAYLOAD,2023-12-09 13:53:30,15.08925582,0.0001243,53.2139,155.2291,127.7408,232.3696,-0.002684,-0.00042849,0.0,0 STARLINK-3898,1 52458U 22049H   23343.57882588 -.00042849  00000-0 -26840-2 0  9998,2 52458  53.2139 155.2291 0001243 127.7408 232.3696 15.08925582 88319,6917.619,95.432,540.344,538.624,0.0
52458.0,STARLINK-3898,PAYLOAD,2023-12-10 01:01:16,15.08831836,0.0001387,53.214,153.148,96.0071,264.1079,0.00011598,1.558e-05,0.0,0 STARLINK-3898,1 52458U 22049H   23344.04255550  .00001558  00000-0  11598-3 0  9999,2 52458  53.2140 153.1480 0001387  96.0071 264.1079 15.08831836 88384,6917.905,95.438,540.73,538.811,0.0
52458.0,STARLINK-3898,PAYLOAD,2023-12-10 10:33:35,15.08834285,0.0001376,53.214,151.3635,97.0765,263.0383,0.00012654,1.726e-05,0.0,0 STARLINK-3898,1 52458U 22049H   23344.43999656  .00001726  00000-0  12654-3 0  9995,2 52458  53.2140 151.3635 0001376  97.0765 263.0383 15.08834285 88281,6917.898,95.438,540.715,538.811,0.0
52458.0,STARLINK-3898,PAYLOAD,2023-12-10 16:55:08,15.08836147,0.0001309,53.2146,150.1745,93.3209,266.7933,0.00012833,1.755e-05,0.0,0 STARLINK-3898,1 52458U 22049H   23344.70495670  .00001755  00000-0  12833-3 0  9993,2 52458  53.2146 150.1745 0001309  93.3209 266.7933 15.08836147 88329,6917.892,95.438,540.663,538.852,0.0
52458.0,STARLINK-3898,PAYLOAD,2023-12-11 18:21:20,15.08817525,0.0001229,53.216,145.4179,87.0269,273.0864,-2.9375e-05,-7.55e-06,0.0,0 STARLINK-3898,1 52458U 22049H   23345.76482412 -.00000755  00000-0 -29375-4 0  9991,2 52458  53.2160 145.4179 0001229  87.0269 273.0864 15.08817525 88648,6917.949,95.439,540.664,538.964,0.0
52458.0,STARLINK-3898,PAYLOAD,2023-12-12 18:12:06,15.0884092,0.0001365,53.2173,140.9571,77.2931,282.8214,0.00012183,1.652e-05,0.0,0 STARLINK-3898,1 52458U 22049H   23346.75841149  .00001652  00000-0  12183-3 0  9990,2 52458  53.2173 140.9571 0001365  77.2931 282.8214 15.08840920 88794,6917.878,95.437,540.687,538.798,0.0
52458.0,STARLINK-3898,PAYLOAD,2023-12-13 14:52:06,15.08848841,9.12e-05,53.2159,137.096,75.133,284.9764,0.00033142,4.992e-05,0.0,0 STARLINK-3898,1 52458U 22049H   23347.61952303  .00004992  00000-0  33142-3 0  9999,2 52458  53.2159 137.0960 0000912  75.1330 284.9764 15.08848841 88764,6917.853,95.437,540.349,539.087,0.0
52458.0,STARLINK-3898,PAYLOAD,2023-12-13 16:27:29,15.0885059,0.0001111,53.2164,136.7986,84.1961,275.9158,0.00036364,5.506e-05,0.0,0 STARLINK-3898,1 52458U 22049H   23347.68576261  .00005506  00000-0  36364-3 0  9992,2 52458  53.2164 136.7986 0001111  84.1961 275.9158 15.08850590 88936,6917.848,95.437,540.482,538.944,0.0
52458.0,STARLINK-3898,PAYLOAD,2023-12-14 13:07:30,15.08853676,9.22e-05,53.2154,132.9334,98.0629,262.0467,5.478e-05,5.84e-06,0.0,0 STARLINK-3898,1 52458U 22049H   23348.54688200  .00000584  00000-0  54780-4 0  9999,2 52458  53.2154 132.9334 0000922  98.0629 262.0467 15.08853676 88909,6917.839,95.437,540.341,539.066,0.0
52458.0,STARLINK-3898,PAYLOAD,2023-12-14 16:18:16,15.08853179,9.58e-05,53.2151,132.3364,100.4285,259.6815,6.0752e-05,6.8e-06,0.0,0 STARLINK-3898,1 52458U 22049H   23348.67936111  .00000680  00000-0  60752-4 0  9993,2 52458  53.2151 132.3364 0000958 100.4285 259.6815 15.08853179 89085,6917.84,95.437,540.368,539.042,0.0
52458.0,STARLINK-3898,PAYLOAD,2023-12-15 00:15:12,15.08846292,0.0001122,53.2165,130.8493,92.1028,268.0093,-6.3439e-05,-1.297e-05,0.0,0 STARLINK-3898,1 52458U 22049H   23349.01056186 -.00001297  00000-0 -63439-4 0  9999,2 52458  53.2165 130.8493 0001122  92.1028 268.0093 15.08846292 89138,6917.861,95.437,540.502,538.95,0.0
52458.0,STARLINK-3898,PAYLOAD,2023-12-15 14:33:40,15.08843634,0.0001265,53.2173,128.1697,101.3381,258.7753,-0.00017973,-3.147e-05,0.0,0 STARLINK-3898,1 52458U 22049H   23349.60672043 -.00003147  00000-0 -17973-3 0  9997,2 52458  53.2173 128.1697 0001265 101.3381 258.7753 15.08843634 89064,6917.869,95.437,540.609,538.859,0.0
52458.0,STARLINK-3898,PAYLOAD,2023-12-15 20:55:13,15.08846982,0.000112,53.2171,126.985,83.3116,276.8003,-5.7999e-05,-1.211e-05,0.0,0 STARLINK-3898,1 52458U 22049H   23349.87167925 -.00001211  00000-0 -57999-4 0  9997,2 52458  53.2171 126.9850 0001120  83.3116 276.8003 15.08846982 89107,6917.859,95.437,540.499,538.949,0.0
52458.0,STARLINK-3898,PAYLOAD,2023-12-16 14:24:27,15.08848873,0.0001111,53.216,123.7093,68.0738,292.0372,0.0002339,3.438e-05,0.0,0 STARLINK-3898,1 52458U 22049H   23350.60032007  .00003438  00000-0  23390-3 0  9990,2 52458  53.2160 123.7093 0001111  68.0738 292.0372 15.08848873 89211,6917.853,95.437,540.487,538.95,0.0
52458.0,STARLINK-3898,PAYLOAD,2023-12-16 15:59:50,15.08851573,0.0001142,53.217,123.4147,85.0714,275.0408,0.00030352,4.547e-05,0.0,0 STARLINK-3898,1 52458U 22049H   23350.66655911  .00004547  00000-0  30352-3 0  9999,2 52458  53.2170 123.4147 0001142  85.0714 275.0408 15.08851573 89386,6917.845,95.437,540.5,538.92,0.0
52458.0,STARLINK-3898,PAYLOAD,2023-12-17 12:39:51,15.08842036,0.000117,53.2165,119.5447,93.8057,266.3069,8.3553e-05,1.042e-05,0.0,0 STARLINK-3898,1 52458U 22049H   23351.52768218  .00001042  00000-0  83553-4 0  9999,2 52458  53.2165 119.5447 0001170  93.8057 266.3069 15.08842036 89512,6917.874,95.437,540.549,538.93,0.0
52458.0,STARLINK-3898,PAYLOAD,2023-12-17 14:15:14,15.08842734,0.0001172,53.2165,119.2477,95.8711,264.2414,9.8923e-05,1.287e-05,0.0,0 STARLINK-3898,1 52458U 22049H   23351.59392201  .00001287  00000-0  98923-4 0  9999,2 52458  53.2165 119.2477 0001172  95.8711 264.2414 15.08842734 89362,6917.872,95.437,540.548,538.926,0.0
52458.0,STARLINK-3898,PAYLOAD,2023-12-18 14:06:01,15.08857283,0.000125,53.2165,114.785,101.6814,258.4318,0.0002539,3.757e-05,0.0,0 STARLINK-3898,1 52458U 22049H   23352.58751322  .00003757  00000-0  25390-3 0  9993,2 52458  53.2165 114.7850 0001250 101.6814 258.4318 15.08857283 89514,6917.828,95.436,540.557,538.828,0.0
